ONEWEB-0509             
1 54127U 22138Q   24034.24976479 -.00000013  00000+0 -63801-4 0  9993
2 54127  87.9186 117.1486 0002133 104.8166 255.3203 13.19725258 62723
ONEWEB-0510             
1 54128U 22138R   24034.51922960  .00000031  00000+0  44099-4 0  9996
2 54128  87.9159  86.5388 0002135  84.8248 275.3129 13.20773250 65149
ONEWEB-0511             
1 54129U 22138S   24034.24660160 -.00000042  00000+0 -13719-3 0  9996
2 54129  87.9189 117.1511 0002024 116.0561 244.0780 13.19725417 62755
ONEWEB-0512             
1 54130U 22138T   24034.31454853  .00000022  00000+0  21795-4 0  9996
2 54130  87.9195 117.1429 0002477 106.4791 253.6614 13.19725631 62730
ONEWEB-0513             
1 54131U 22138U   24034.28530971 -.00000020  00000+0 -81890-4 0  9991
2 54131  87.9193 117.1461 0002551 114.4571 245.6828 13.19727493 62616
ONEWEB-0514             
1 54132U 22138V   24034.25451359  .00000104  00000+0  22868-3 0  9991
2 54132  87.9190 117.1537 0001902 106.1537 253.9805 13.19726296 62748
ONEWEB-0515             
1 54133U 22138W   24034.20358234 -.00000011  00000+0 -58595-4 0  9991
2 54133  87.9156  86.5825 0001456  62.0250 298.1030 13.20772932 65122
ONEWEB-0516             
1 54134U 22138X   24034.22924659  .00000096  00000+0  20700-3 0  9991
2 54134  87.9197 117.1603 0002013 103.1898 256.9459 13.19727042 62740
